{
    "links": {
        "self": "http://www.neowsapp.com/rest/v1/neo/3602081?api_key=iIulBulltgU6a56xZRHN4H3l9WmuAYTsLGpBGhQ2"
    },
    "id": "3602081",
    "neo_reference_id": "3602081",
    "name": "(2012 FT62)",
    "designation": "2012 FT62",
    "nasa_jpl_url": "http://ssd.jpl.nasa.gov/sbdb.cgi?sstr=3602081",
    "absolute_magnitude_h": 24.8,
    "estimated_diameter": {
        "kilometers": {
            "estimated_diameter_min": 0.0291443905,
            "estimated_diameter_max": 0.0651688382
        },
        "meters": {
            "estimated_diameter_min": 29.1443904535,
            "estimated_diameter_max": 65.1688382168
        },
        "miles": {
            "estimated_diameter_min": 0.018109479,
            "estimated_diameter_max": 0.0404940262
        },
        "feet": {
            "estimated_diameter_min": 95.6180819754,
            "estimated_diameter_max": 213.8085311752
        }
    },
    "is_potentially_hazardous_asteroid": false,
    "close_approach_data": [
        {
            "close_approach_date": "2012-04-14",
            "close_approach_date_full": "2012-Apr-14 04:15",
            "epoch_date_close_approach": 1334376900000,
            "relative_velocity": {
                "kilometers_per_second": "14.0366555152",
                "kilometers_per_hour": "50531.9598548503",
                "miles_per_hour": "31398.5947220319"
            },
            "miss_distance": {
                "astronomical": "0.0258375244",
                "lunar": "10.0507969916",
                "kilometers": "3865238.616313028",
                "miles": "2401747.9056466664"
            },
            "orbiting_body": "Earth"
        }
    ],
    "orbital_data": {
        "orbit_id": "8",
        "orbit_determination_date": "2017-04-06 08:50:14",
        "first_observation_date": "2012-03-29",
        "last_observation_date": "2012-04-12",
        "data_arc_in_days": 14,
        "observations_used": 21,
        "orbit_uncertainty": "8",
        "minimum_orbit_intersection": ".0146498",
        "jupiter_tisserand_invariant": "3.808",
        "epoch_osculation": "2456017.5",
        "eccentricity": ".5478398462412017",
        "semi_major_axis": "1.850367573003295",
        "inclination": "3.46136901734715",
        "ascending_node_longitude": "40.29055178846708",
        "orbital_period": "919.3596528920971",
        "perihelion_distance": ".8366624863194644",
        "perihelion_argument": "223.7571384093737",
        "aphelion_distance": "2.864072659687126",
        "perihelion_time": "2456073.195023736772",
        "mean_anomaly": "338.1911154332643",
        "mean_motion": ".3915768968841754",
        "equinox": "J2000",
        "orbit_class": {
            "orbit_class_type": "APO",
            "orbit_class_description": "Near-Earth asteroid orbits which cross the Earth’s orbit similar to that of 1862 Apollo",
            "orbit_class_range": "a (semi-major axis) > 1.0 AU; q (perihelion) < 1.017 AU"
        }
    },
    "is_sentry_object": false
}